CCSDS_OMM_VERS = 2.0
CREATION_DATE  = 
ORIGINATOR     = 

OBJECT_NAME    = STARLINK-36366
OBJECT_ID      = 2026-044X
CENTER_NAME    = EARTH
REF_FRAME      = TEME
TIME_SYSTEM    = UTC
MEAN_ELEMENT_THEORY = SGP/SGP4

EPOCH          = 2026-03-14T20:00:01.999872
MEAN_MOTION    = 16.03047659
ECCENTRICITY   = .00011361
INCLINATION    = 97.2801
RA_OF_ASC_NODE = 34.1108
ARG_OF_PERICENTER = 93.7888
MEAN_ANOMALY   = 211.6847

EPHEMERIS_TYPE = 0
CLASSIFICATION_TYPE = U
NORAD_CAT_ID   = 68122
ELEMENT_SET_NO = 999
REV_AT_EPOCH   = 222
BSTAR          = -.30058812E-2
MEAN_MOTION_DOT = -.1798535E-1
MEAN_MOTION_DDOT = .10102717E-2

CCSDS_OMM_VERS = 2.0
CREATION_DATE  = 
ORIGINATOR     = 

OBJECT_NAME    = STARLINK-36922
OBJECT_ID      = 2026-044Y
CENTER_NAME    = EARTH
REF_FRAME      = TEME
TIME_SYSTEM    = UTC
MEAN_ELEMENT_THEORY = SGP/SGP4

EPOCH          = 2026-03-14T20:00:01.999872
MEAN_MOTION    = 16.03315562
ECCENTRICITY   = .00012831
INCLINATION    = 97.2802
RA_OF_ASC_NODE = 34.1126
ARG_OF_PERICENTER = 94.1004
MEAN_ANOMALY   = 215.2982

EPHEMERIS_TYPE = 0
CLASSIFICATION_TYPE = U
NORAD_CAT_ID   = 68123
ELEMENT_SET_NO = 999
REV_AT_EPOCH   = 222
BSTAR          = -.29484502E-2
MEAN_MOTION_DOT = -.1792322E-1
MEAN_MOTION_DDOT = .10069828E-2

CCSDS_OMM_VERS = 2.0
CREATION_DATE  = 
ORIGINATOR     = 

OBJECT_NAME    = STARLINK-36938
OBJECT_ID      = 2026-044Z
CENTER_NAME    = EARTH
REF_FRAME      = TEME
TIME_SYSTEM    = UTC
MEAN_ELEMENT_THEORY = SGP/SGP4

EPOCH          = 2026-03-14T20:00:01.999872
MEAN_MOTION    = 16.03444033
ECCENTRICITY   = .0001169
INCLINATION    = 97.2802
RA_OF_ASC_NODE = 34.1133
ARG_OF_PERICENTER = 95.1236
MEAN_ANOMALY   = 216.0238

EPHEMERIS_TYPE = 0
CLASSIFICATION_TYPE = U
NORAD_CAT_ID   = 68124
ELEMENT_SET_NO = 999
REV_AT_EPOCH   = 222
BSTAR          = -.29337948E-2
MEAN_MOTION_DOT = -.1796902E-1
MEAN_MOTION_DDOT = .10134499E-2

CCSDS_OMM_VERS = 2.0
CREATION_DATE  = 
ORIGINATOR     = 

OBJECT_NAME    = STARLINK-36839
OBJECT_ID      = 2026-044AA
CENTER_NAME    = EARTH
REF_FRAME      = TEME
TIME_SYSTEM    = UTC
MEAN_ELEMENT_THEORY = SGP/SGP4

EPOCH          = 2026-03-14T20:00:01.999872
MEAN_MOTION    = 16.03192964
ECCENTRICITY   = .00012507
INCLINATION    = 97.2803
RA_OF_ASC_NODE = 34.1120
ARG_OF_PERICENTER = 88.1258
MEAN_ANOMALY   = 219.5512

EPHEMERIS_TYPE = 0
CLASSIFICATION_TYPE = U
NORAD_CAT_ID   = 68125
ELEMENT_SET_NO = 999
REV_AT_EPOCH   = 217
BSTAR          = -.29634836E-2
MEAN_MOTION_DOT = -.1788531E-1
MEAN_MOTION_DDOT = .10014587E-2

CCSDS_OMM_VERS = 2.0
CREATION_DATE  = 
ORIGINATOR     = 

OBJECT_NAME    = ECHOSTAR 25
OBJECT_ID      = 2026-045A
CENTER_NAME    = EARTH
REF_FRAME      = TEME
TIME_SYSTEM    = UTC
MEAN_ELEMENT_THEORY = SGP/SGP4

EPOCH          = 2026-03-11T09:52:45.155136
MEAN_MOTION    = 3.74430284
ECCENTRICITY   = .62093977
INCLINATION    = 26.8991
RA_OF_ASC_NODE = 70.3993
ARG_OF_PERICENTER = 175.3735
MEAN_ANOMALY   = 195.5868

EPHEMERIS_TYPE = 0
CLASSIFICATION_TYPE = U
NORAD_CAT_ID   = 68126
ELEMENT_SET_NO = 999
REV_AT_EPOCH   = 5
BSTAR          = .64832912E-4
MEAN_MOTION_DOT = .389E-5
MEAN_MOTION_DDOT = 0

CCSDS_OMM_VERS = 2.0
CREATION_DATE  = 
ORIGINATOR     = 

OBJECT_NAME    = ICOR SV
OBJECT_ID      = 2026-046A
CENTER_NAME    = EARTH
REF_FRAME      = TEME
TIME_SYSTEM    = UTC
MEAN_ELEMENT_THEORY = SGP/SGP4

EPOCH          = 2026-03-13T21:49:43.816224
MEAN_MOTION    = 15.82606913
ECCENTRICITY   = .0140888
INCLINATION    = 123.0797
RA_OF_ASC_NODE = 224.1306
ARG_OF_PERICENTER = 188.2572
MEAN_ANOMALY   = 171.6170

EPHEMERIS_TYPE = 0
CLASSIFICATION_TYPE = U
NORAD_CAT_ID   = 68127
ELEMENT_SET_NO = 999
REV_AT_EPOCH   = 29
BSTAR          = .10434E-2
MEAN_MOTION_DOT = .482503E-2
MEAN_MOTION_DDOT = .92133E-4

CCSDS_OMM_VERS = 2.0
CREATION_DATE  = 
ORIGINATOR     = 

OBJECT_NAME    = FIREFLY ALPHA R/B
OBJECT_ID      = 2026-046B
CENTER_NAME    = EARTH
REF_FRAME      = TEME
TIME_SYSTEM    = UTC
MEAN_ELEMENT_THEORY = SGP/SGP4

EPOCH          = 2026-03-14T21:41:11.861664
MEAN_MOTION    = 15.56168018
ECCENTRICITY   = .00135756
INCLINATION    = 123.0916
RA_OF_ASC_NODE = 228.1666
ARG_OF_PERICENTER = 345.8437
MEAN_ANOMALY   = 14.2241

EPHEMERIS_TYPE = 0
CLASSIFICATION_TYPE = U
NORAD_CAT_ID   = 68128
ELEMENT_SET_NO = 999
REV_AT_EPOCH   = 45
BSTAR          = .65766291E-3
MEAN_MOTION_DOT = .4679E-3
MEAN_MOTION_DDOT = 0

CCSDS_OMM_VERS = 2.0
CREATION_DATE  = 
ORIGINATOR     = 

OBJECT_NAME    = GUOWANG GROUP 20 OBJECT A
OBJECT_ID      = 2026-047A
CENTER_NAME    = EARTH
REF_FRAME      = TEME
TIME_SYSTEM    = UTC
MEAN_ELEMENT_THEORY = SGP/SGP4

EPOCH          = 2026-03-15T00:04:40.359360
MEAN_MOTION    = 14.05944149
ECCENTRICITY   = .00091186
INCLINATION    = 50.0052
RA_OF_ASC_NODE = 48.8165
ARG_OF_PERICENTER = 270.7651
MEAN_ANOMALY   = 89.2210

EPHEMERIS_TYPE = 0
CLASSIFICATION_TYPE = U
NORAD_CAT_ID   = 68129
ELEMENT_SET_NO = 999
REV_AT_EPOCH   = 31
BSTAR          = .8337594E-5
MEAN_MOTION_DOT = -.138E-5
MEAN_MOTION_DDOT = 0

CCSDS_OMM_VERS = 2.0
CREATION_DATE  = 
ORIGINATOR     = 

OBJECT_NAME    = GUOWANG GROUP 20 OBJECT B
OBJECT_ID      = 2026-047B
CENTER_NAME    = EARTH
REF_FRAME      = TEME
TIME_SYSTEM    = UTC
MEAN_ELEMENT_THEORY = SGP/SGP4

EPOCH          = 2026-03-15T00:04:25.038912
MEAN_MOTION    = 14.06063658
ECCENTRICITY   = .00077645
INCLINATION    = 50.0042
RA_OF_ASC_NODE = 48.8174
ARG_OF_PERICENTER = 265.9471
MEAN_ANOMALY   = 94.0547

EPHEMERIS_TYPE = 0
CLASSIFICATION_TYPE = U
NORAD_CAT_ID   = 68130
ELEMENT_SET_NO = 999
REV_AT_EPOCH   = 30
BSTAR          = .7824815E-5
MEAN_MOTION_DOT = -.139E-5
MEAN_MOTION_DDOT = 0

CCSDS_OMM_VERS = 2.0
CREATION_DATE  = 
ORIGINATOR     = 

OBJECT_NAME    = SHIYAN-30 03
OBJECT_ID      = 2026-048A
CENTER_NAME    = EARTH
REF_FRAME      = TEME
TIME_SYSTEM    = UTC
MEAN_ELEMENT_THEORY = SGP/SGP4

EPOCH          = 2026-03-14T19:02:27.125664
MEAN_MOTION    = 14.92809900
ECCENTRICITY   = .0004892
INCLINATION    = 34.9996
RA_OF_ASC_NODE = 113.4693
ARG_OF_PERICENTER = 317.1942
MEAN_ANOMALY   = 42.8382

EPHEMERIS_TYPE = 0
CLASSIFICATION_TYPE = U
NORAD_CAT_ID   = 68139
ELEMENT_SET_NO = 999
REV_AT_EPOCH   = 26
BSTAR          = .35978165E-3
MEAN_MOTION_DOT = .3768E-4
MEAN_MOTION_DDOT = 0

CCSDS_OMM_VERS = 2.0
CREATION_DATE  = 
ORIGINATOR     = 

OBJECT_NAME    = SHIYAN-30 04
OBJECT_ID      = 2026-048B
CENTER_NAME    = EARTH
REF_FRAME      = TEME
TIME_SYSTEM    = UTC
MEAN_ELEMENT_THEORY = SGP/SGP4

EPOCH          = 2026-03-14T20:39:13.092480
MEAN_MOTION    = 14.92495429
ECCENTRICITY   = .00045542
INCLINATION    = 34.9910
RA_OF_ASC_NODE = 113.0752
ARG_OF_PERICENTER = 311.7439
MEAN_ANOMALY   = 48.2876

EPHEMERIS_TYPE = 0
CLASSIFICATION_TYPE = U
NORAD_CAT_ID   = 68140
ELEMENT_SET_NO = 999
REV_AT_EPOCH   = 27
BSTAR          = .29834641E-3
MEAN_MOTION_DOT = .3095E-4
MEAN_MOTION_DDOT = 0

CCSDS_OMM_VERS = 2.0
CREATION_DATE  = 
ORIGINATOR     = 

OBJECT_NAME    = CZ-2D R/B
OBJECT_ID      = 2026-048C
CENTER_NAME    = EARTH
REF_FRAME      = TEME
TIME_SYSTEM    = UTC
MEAN_ELEMENT_THEORY = SGP/SGP4

EPOCH          = 2026-03-14T18:57:45.502272
MEAN_MOTION    = 14.95517804
ECCENTRICITY   = .00154845
INCLINATION    = 35.1291
RA_OF_ASC_NODE = 113.6240
ARG_OF_PERICENTER = 8.1920
MEAN_ANOMALY   = 351.9039

EPHEMERIS_TYPE = 0
CLASSIFICATION_TYPE = U
NORAD_CAT_ID   = 68141
ELEMENT_SET_NO = 999
REV_AT_EPOCH   = 26
BSTAR          = .18561926E-3
MEAN_MOTION_DOT = .2069E-4
MEAN_MOTION_DDOT = 0

